$$SOE
2460728.500000000, A.D. 2025-Feb-22 00:00:00.0000, -4.647903555870597E+08, 1.493160410706268E+07, -5.561210951717979E+07,
2460735.500000000, A.D. 2025-Mar-01 00:00:00.0000, -4.677069957048334E+08, 5.904042702022556E+06, -5.597887645917232E+07,
2460742.500000000, A.D. 2025-Mar-08 00:00:00.0000, -4.704064216467623E+08, -3.126319311010476E+06, -5.631964622672352E+07,
2460749.500000000, A.D. 2025-Mar-15 00:00:00.0000, -4.728910812024693E+08, -1.215531090398940E+07, -5.663470447367808E+07,
2460756.500000000, A.D. 2025-Mar-22 00:00:00.0000, -4.751634185399747E+08, -2.117889811716113E+07, -5.692433630955914E+07,
2460763.500000000, A.D. 2025-Mar-29 00:00:00.0000, -4.772258725791031E+08, -3.019317966030048E+07, -5.718882605546319E+07,
2460770.500000000, A.D. 2025-Apr-05 00:00:00.0000, -4.790808739567574E+08, -3.919438187752250E+07, -5.742845711635857E+07,
2460777.500000000, A.D. 2025-Apr-12 00:00:00.0000, -4.807308424825749E+08, -4.817885296673897E+07, -5.764351178134277E+07,
2460784.500000000, A.D. 2025-Apr-19 00:00:00.0000, -4.821781852501751E+08, -5.714305733009116E+07, -5.783427100473884E+07,
2460791.500000000, A.D. 2025-Apr-26 00:00:00.0000, -4.834252951140159E+08, -6.608357025136085E+07, -5.800101420819782E+07,
2460798.500000000, A.D. 2025-May-03 00:00:00.0000, -4.844745494011768E+08, -7.499707287243232E+07, -5.814401911125400E+07,
2460805.500000000, A.D. 2025-May-10 00:00:00.0000, -4.853283088129691E+08, -8.388034745073813E+07, -5.826356159059694E+07,
2460812.500000000, A.D. 2025-May-17 00:00:00.0000, -4.859889164636973E+08, -9.273027292938146E+07, -5.835991557297426E+07,
2460819.500000000, A.D. 2025-May-24 00:00:00.0000, -4.864586968675173E+08, -1.015438208654119E+08, -5.843335298028046E+07,
2460826.500000000, A.D. 2025-May-31 00:00:00.0000, -4.867399544414243E+08, -1.103180513966733E+08, -5.848414373792502E+07,
2460833.500000000, A.D. 2025-Jun-07 00:00:00.0000, -4.868349719120117E+08, -1.190501080342711E+08, -5.851255570950924E+07,
2460840.500000000, A.D. 2025-Jun-14 00:00:00.0000, -4.867460109785371E+08, -1.277372119401101E+08, -5.851885439393782E+07,
2460847.500000000, A.D. 2025-Jun-21 00:00:00.0000, -4.864753140057718E+08, -1.363766589538904E+08, -5.850330276284046E+07,
2460854.500000000, A.D. 2025-Jun-28 00:00:00.0000, -4.860251036097317E+08, -1.449658175971146E+08, -5.846616137991059E+07,
2460861.500000000, A.D. 2025-Jul-05 00:00:00.0000, -4.853975816436008E+08, -1.535021258897207E+08, -5.840768848539327E+07,
2460868.500000000, A.D. 2025-Jul-12 00:00:00.0000, -4.845949287659430E+08, -1.619830877779061E+08, -5.832814000105250E+07,
2460875.500000000, A.D. 2025-Jul-19 00:00:00.0000, -4.836193043944228E+08, -1.704062697421507E+08, -5.822776951915270E+07,
2460882.500000000, A.D. 2025-Jul-26 00:00:00.0000, -4.824728468291047E+08, -1.787692976358575E+08, -5.810682829862408E+07,
2460889.500000000, A.D. 2025-Aug-02 00:00:00.0000, -4.811576734744099E+08, -1.870698537266640E+08, -5.796556527187969E+07,
2460896.500000000, A.D. 2025-Aug-09 00:00:00.0000, -4.796758811310657E+08, -1.953056739488690E+08, -5.780422706482523E+07,
2460903.500000000, A.D. 2025-Aug-16 00:00:00.0000, -4.780295462762510E+08, -2.034745454242491E+08, -5.762305804149631E+07,
2460910.500000000, A.D. 2025-Aug-23 00:00:00.0000, -4.762207250349062E+08, -2.115743042290668E+08, -5.742230039804964E+07,
2460917.500000000, A.D. 2025-Aug-30 00:00:00.0000, -4.742514525091726E+08, -2.196028326877092E+08, -5.720219427716136E+07,
2460924.500000000, A.D. 2025-Sep-06 00:00:00.0000, -4.721237428801067E+08, -2.275580551874996E+08, -5.696297769025619E+07,
2460931.500000000, A.D. 2025-Sep-13 00:00:00.0000, -4.698395919490214E+08, -2.354379349931233E+08, -5.670488629665560E+07,
2460938.500000000, A.D. 2025-Sep-20 00:00:00.0000, -4.674009788431717E+08, -2.432404737010319E+08, -5.642815347390389E+07,
2460945.500000000, A.D. 2025-Sep-27 00:00:00.0000, -4.648098658253481E+08, -2.509637102174812E+08, -5.613301052158220E+07,
2460952.500000000, A.D. 2025-Oct-04 00:00:00.0000, -4.620681982213324E+08, -2.586057187160889E+08, -5.581968676891755E+07,
2460959.500000000, A.D. 2025-Oct-11 00:00:00.0000, -4.591779048362018E+08, -2.661646065138417E+08, -5.548840962853032E+07,
2460966.500000000, A.D. 2025-Oct-18 00:00:00.0000, -4.561408985739791E+08, -2.736385121364679E+08, -5.513940464460835E+07,
2460973.500000000, A.D. 2025-Oct-25 00:00:00.0000, -4.529590771199777E+08, -2.810256035586645E+08, -5.477289554740341E+07,
2460980.500000000, A.D. 2025-Nov-01 00:00:00.0000, -4.496343236455801E+08, -2.883240765999537E+08, -5.438910431642753E+07,
2460987.500000000, A.D. 2025-Nov-08 00:00:00.0000, -4.461685075001172E+08, -2.955321535036593E+08, -5.398825125809528E+07,
2460994.500000000, A.D. 2025-Nov-15 00:00:00.0000, -4.425634847411417E+08, -3.026480817535213E+08, -5.357055511614487E+07,
2461001.500000000, A.D. 2025-Nov-22 00:00:00.0000, -4.388210980993629E+08, -3.096701329037340E+08, -5.313623323370011E+07,
2461008.500000000, A.D. 2025-Nov-29 00:00:00.0000, -4.349431765299475E+08, -3.165966002833656E+08, -5.268550166000240E+07,
2461015.500000000, A.D. 2025-Dec-06 00:00:00.0000, -4.309315366256676E+08, -3.234257957077478E+08, -5.221857500390303E+07,
2461022.500000000, A.D. 2025-Dec-13 00:00:00.0000, -4.267879854568760E+08, -3.301560485650914E+08, -5.173566634946933E+07,
2461029.500000000, A.D. 2025-Dec-20 00:00:00.0000, -4.225143213452676E+08, -3.367857062537307E+08, -5.123698747084868E+07,
2461036.500000000, A.D. 2025-Dec-27 00:00:00.0000, -4.181123336458346E+08, -3.433131333764814E+08, -5.072274903635949E+07,
2461043.500000000, A.D. 2026-Jan-03 00:00:00.0000, -4.135838029964850E+08, -3.497367103048811E+08, -5.019316071832244E+07,
2461050.500000000, A.D. 2026-Jan-10 00:00:00.0000, -4.089305019256876E+08, -3.560548317894129E+08, -4.964843127418457E+07,
2461057.500000000, A.D. 2026-Jan-17 00:00:00.0000, -4.041541955858238E+08, -3.622659057045803E+08, -4.908876862773488E+07,
2461064.500000000, A.D. 2026-Jan-24 00:00:00.0000, -3.992566425346670E+08, -3.683683519034532E+08, -4.851437995564851E+07,
2461071.500000000, A.D. 2026-Jan-31 00:00:00.0000, -3.942395955418910E+08, -3.743606011863189E+08, -4.792547178200389E+07,
2461078.500000000, A.D. 2026-Feb-07 00:00:00.0000, -3.891048023593755E+08, -3.802410944380619E+08, -4.732225009095648E+07,
2461085.500000000, A.D. 2026-Feb-14 00:00:00.0000, -3.838540062025195E+08, -3.860082819470010E+08, -4.670492048190205E+07,
2461092.500000000, A.D. 2026-Feb-21 00:00:00.0000, -3.784889455553204E+08, -3.916606223257548E+08, -4.607368835540080E+07,
2461099.500000000, A.D. 2026-Feb-28 00:00:00.0000, -3.730113543842505E+08, -3.971965798783939E+08, -4.542875893598393E+07,
2461106.500000000, A.D. 2026-Mar-07 00:00:00.0000, -3.674229648194802E+08, -4.026146223621177E+08, -4.477033710234588E+07,
2461113.500000000, A.D. 2026-Mar-14 00:00:00.0000, -3.617255095283045E+08, -4.079132214754807E+08, -4.409862747026083E+07,
2461120.500000000, A.D. 2026-Mar-21 00:00:00.0000, -3.559207219992201E+08, -4.130908531745448E+08, -4.341383465499991E+07,
2461127.500000000, A.D. 2026-Mar-28 00:00:00.0000, -3.500103367471712E+08, -4.181459967870119E+08, -4.271616344479835E+07,
2461134.500000000, A.D. 2026-Apr-04 00:00:00.0000, -3.439960900443661E+08, -4.230771338885937E+08, -4.200581890876788E+07,
2461141.500000000, A.D. 2026-Apr-11 00:00:00.0000, -3.378797209033330E+08, -4.278827473005558E+08, -4.128300649369144E+07,
2461148.500000000, A.D. 2026-Apr-18 00:00:00.0000, -3.316629721536607E+08, -4.325613202145054E+08, -4.054793212481591E+07,
2461155.500000000, A.D. 2026-Apr-25 00:00:00.0000, -3.253475915675331E+08, -4.371113354292362E+08, -3.980080231362259E+07,
2461162.500000000, A.D. 2026-May-02 00:00:00.0000, -3.189353330043961E+08, -4.415312747286810E+08, -3.904182427777138E+07,
2461169.500000000, A.D. 2026-May-09 00:00:00.0000, -3.124279574511358E+08, -4.458196184664912E+08, -3.827120609000662E+07,
2461176.500000000, A.D. 2026-May-16 00:00:00.0000, -3.058272335807371E+08, -4.499748452181535E+08, -3.748915687934864E+07,
2461183.500000000, A.D. 2026-May-23 00:00:00.0000, -2.991349377784745E+08, -4.539954304774715E+08, -3.669588700577924E+07,
2461190.500000000, A.D. 2026-May-30 00:00:00.0000, -2.923528557147509E+08, -4.578798440770221E+08, -3.589160799175248E+07,
2461197.500000000, A.D. 2026-Jun-06 00:00:00.0000, -2.854827857824698E+08, -4.616265496059483E+08, -3.507653244922125E+07,
2461204.500000000, A.D. 2026-Jun-13 00:00:00.0000, -2.785265407343262E+08, -4.652340056270090E+08, -3.425087432263181E+07,
2461211.500000000, A.D. 2026-Jun-20 00:00:00.0000, -2.714859480232067E+08, -4.687006657675996E+08, -3.341484916329980E+07,
2461218.500000000, A.D. 2026-Jun-27 00:00:00.0000, -2.643628505462680E+08, -4.720249780248771E+08, -3.256867430763760E+07,
2461225.500000000, A.D. 2026-Jul-04 00:00:00.0000, -2.571591077949403E+08, -4.752053840599539E+08, -3.171256902303657E+07,
2461232.500000000, A.D. 2026-Jul-11 00:00:00.0000, -2.498765971590998E+08, -4.782403186131412E+08, -3.084675465597185E+07,
2461239.500000000, A.D. 2026-Jul-18 00:00:00.0000, -2.425172152949455E+08, -4.811282090145631E+08, -2.997145478921595E+07,
2461246.500000000, A.D. 2026-Jul-25 00:00:00.0000, -2.350828795344100E+08, -4.838674747873762E+08, -2.908689541059136E+07,
2461253.500000000, A.D. 2026-Aug-01 00:00:00.0000, -2.275755292901064E+08, -4.864565273915709E+08, -2.819330510195690E+07,
2461260.500000000, A.D. 2026-Aug-08 00:00:00.0000, -2.199971272427551E+08, -4.888937701443334E+08, -2.729091527140409E+07,
2461267.500000000, A.D. 2026-Aug-15 00:00:00.0000, -2.123496598978865E+08, -4.911775978672886E+08, -2.637996043031469E+07,
2461274.500000000, A.D. 2026-Aug-22 00:00:00.0000, -2.046351382750832E+08, -4.933063950405239E+08, -2.546067834609550E+07,
2461281.500000000, A.D. 2026-Aug-29 00:00:00.0000, -1.968556010213633E+08, -4.952785338374420E+08, -2.453330997327238E+07,
2461288.500000000, A.D. 2026-Sep-05 00:00:00.0000, -1.890131178178771E+08, -4.970923749104696E+08, -2.359809959350419E+07,
$$EOE